BEIDOU-3S M1S (C57)     
1 40749U 15037B   24090.93910693 -.00000056  00000+0  00000+0 0  9995
2 40749  55.5331 329.6786 0006018 352.3319   7.7085  1.86232996 59063
BEIDOU-3S IGSO-2S (C56) 
1 40938U 15053A   24093.82952884 -.00000107  00000+0  00000+0 0  9999
2 40938  50.4786 268.2797 0049438 187.6735 130.6929  1.00279708 31279
BEIDOU-2 IGSO-6 (C13)   
1 41434U 16021A   24093.85173178 -.00000141  00000+0  00000+0 0  9999
2 41434  59.0723  46.1107 0049492 225.1909 322.3084  1.00284932 29405
BEIDOU-2 G7 (C03)       
1 41586U 16037A   24093.86424831 -.00000355  00000+0  00000+0 0  9997
2 41586   1.7249  68.5878 0009199 322.7464 221.8952  1.00277876 28712
BEIDOU-3 M1 (C19)       
1 43001U 17069A   24093.70211907  .00000056  00000+0  00000+0 0  9995
2 43001  56.0051  89.7715 0012614 299.1071  60.7884  1.86231220 43608
BEIDOU-3 M2 (C20)       
1 43002U 17069B   24093.63919326  .00000056  00000+0  00000+0 0  9998
2 43002  56.0047  89.8092 0010188 317.4764  42.4665  1.86231005 43593
BEIDOU-3 M7 (C27)       
1 43107U 18003A   24093.38896196 -.00000052  00000+0  00000+0 0  9991
2 43107  54.9860 330.2325 0005001  59.0033 301.0940  1.86232334 42345
BEIDOU-3 M8 (C28)       
1 43108U 18003B   24093.32877211 -.00000052  00000+0  00000+0 0  9993
2 43108  54.9790 330.2206 0002891 281.6035  78.4122  1.86230828 42359
BEIDOU-3 M4 (C22)       
1 43207U 18018A   24092.15931303  .00000047  00000+0  00000+0 0  9995
2 43207  55.9626  89.9149 0007077 334.1602  25.8237  1.86231267 41717
BEIDOU-3 M3 (C21)       
1 43208U 18018B   24092.22587971  .00000047  00000+0  00000+0 0  9992
2 43208  55.9621  89.9170 0010237 307.6218  52.3046  1.86231287 41712
BEIDOU-3 M9 (C29)       
1 43245U 18029A   24093.52166388 -.00000047  00000+0  00000+0 0  9995
2 43245  54.8726 327.9435 0001043   5.8697 354.1798  1.86232408 40890
BEIDOU-3 M10 (C30)      
1 43246U 18029B   24093.45144517 -.00000048  00000+0  00000+0 0  9999
2 43246  54.8695 327.9733 0004927  12.4596 347.6009  1.86232714 40873
BEIDOU-2 IGSO-7 (C16)   
1 43539U 18057A   24093.67150788 -.00000143  00000+0  00000+0 0  9992
2 43539  55.1339 170.0285 0073053 232.1879 144.1309  1.00275843 21066
BEIDOU-3 M5 (C23)       
1 43581U 18062A   24093.13629866  .00000009  00000+0  00000+0 0  9994
2 43581  54.1427 209.7246 0002321 283.4138  76.5511  1.86228556 38620
BEIDOU-3 M6 (C24)       
1 43582U 18062B   24093.00249135  .00000011  00000+0  00000+0 0  9991
2 43582  54.1423 209.7186 0005139  31.9629 328.0594  1.86229335 38623
BEIDOU-3 M12 (C26)      
1 43602U 18067A   24092.93670164  .00000011  00000+0  00000+0 0  9990
2 43602  54.2320 208.3951 0007249  27.8416 332.1904  1.86231621 38105
BEIDOU-3 M11 (C25)      
1 43603U 18067B   24093.60754080  .00000004  00000+0  00000+0 0  9998
2 43603  54.2291 208.3375 0003996  20.6638 339.3434  1.86231488 38147
BEIDOU-3 M13 (C32)      
1 43622U 18072A   24094.10490261  .00000057  00000+0  00000+0 0  9997
2 43622  55.9353  89.3829 0009114 297.2669  62.6622  1.86231280 37661
BEIDOU-3 M14 (C33)      
1 43623U 18072B   24093.43340207  .00000054  00000+0  00000+0 0  9994
2 43623  55.9364  89.3983 0006705 315.2170  44.7498  1.86231301 37640
BEIDOU-3 M16 (C35)      
1 43647U 18078A   24093.05960421 -.00000049  00000+0  00000+0 0  9995
2 43647  54.7687 328.0637 0008232  17.3275 342.7486  1.86232213 37149
BEIDOU-3 M15 (C34)      
1 43648U 18078B   24093.72572377 -.00000048  00000+0  00000+0 0  9998
2 43648  54.7641 328.0438 0005306  26.3093 333.7660  1.86232104 37172
BEIDOU-3 G1 (C59)       
1 43683U 18085A   24093.88375598 -.00000281  00000+0  00000+0 0  9997
2 43683   2.0061 112.6763 0003310 326.5718 210.5151  1.00266754 19983
BEIDOU-3 M17 (C36)      
1 43706U 18093A   24093.33791850  .00000007  00000+0  00000+0 0  9990
2 43706  54.2254 209.6506 0007593 283.0822  76.8233  1.86228195 36539
BEIDOU-3 M18 (C37)      
1 43707U 18093B   24093.20385423  .00000009  00000+0  00000+0 0  9994
2 43707  54.2263 209.6468 0006113 318.4034  41.5408  1.86229655 36526
BEIDOU-3 IGSO-1 (C38)   
1 44204U 19023A   24093.88590729 -.00000200  00000+0  00000+0 0  9996
2 44204  57.5358  46.0122 0019882 215.3757   8.7715  1.00271471 18260
BEIDOU-2 G8 (C01)       
1 44231U 19027A   24093.88471324 -.00000250  00000+0  00000+0 0  9994
2 44231   1.7611  73.3445 0002392 172.3423  48.9779  1.00267409 18008
BEIDOU-3 IGSO-2 (C39)   
1 44337U 19035A   24093.75554528 -.00000143  00000+0  00000+0 0  9995
2 44337  55.1677 165.9305 0032784 206.4287 210.5133  1.00264425 17597
BEIDOU-3 M24 (C46)      
1 44542U 19061A   24093.81090089  .00000003  00000+0  00000+0 0  9990
2 44542  54.4529 209.9057 0007426   2.1132 357.8780  1.86231042 30794
BEIDOU-3 M23 (C45)      
1 44543U 19061B   24093.93614359  .00000001  00000+0  00000+0 0  9994
2 44543  54.4514 209.8706 0004255 351.3540   4.7693  1.86231449 30790
BEIDOU-3 IGSO-3 (C40)   
1 44709U 19073A   24092.94172051 -.00000144  00000+0  00000+0 0  9998
2 44709  56.1786 289.5263 0036337 179.4385 180.5672  1.00272804 16373
BEIDOU-3 M22 (C44)      
1 44793U 19078A   24093.65677741 -.00000048  00000+0  00000+0 0  9994
2 44793  54.6164 327.9844 0007228  23.8008 336.2807  1.86231996 29647
BEIDOU-3 M21 (C43)      
1 44794U 19078B   24093.78676538 -.00000048  00000+0  00000+0 0  9992
2 44794  54.5899 327.9574 0005033  19.4703 340.5972  1.86232482 29650
BEIDOU-3 M19 (C41)      
1 44864U 19090A   24094.10977705  .00000057  00000+0  00000+0 0  9990
2 44864  55.8691  89.5585 0020008 281.3432 128.4187  1.86231496 29232
BEIDOU-3 M20 (C42)      
1 44865U 19090B   24092.35534365  .00000047  00000+0  00000+0 0  9996
2 44865  55.8693  89.6503 0017825 292.7690 110.4845  1.86231535 29192
BEIDOU-3 G2 (C60)       
1 45344U 20017A   24094.15826378 -.00000143  00000+0  00000+0 0  9996
2 45344   2.2289  26.4983 0001249 326.5396 335.9643  1.00272087 15193
BEIDOU-3 G3 (C61)       
1 45807U 20040A   24093.86424840 -.00000356  00000+0  00000+0 0  9997
2 45807   0.6649  30.7353 0006851 302.9002 279.7347  1.00269879 13991
BEIDOU-3 G4             
1 56564U 23066A   24093.88775903 -.00000116  00000+0  00000+0 0  9995
2 56564   2.3135 288.2080 0003697 188.5701 194.5260  1.00272624  3324
BEIDOU-3 M25            
1 58654U 23207A   24093.33248576  .00000051  00000+0  00000+0 0  9992
2 58654  55.0507  89.6527 0005096 287.2549  72.7106  1.86232141  1839
BEIDOU-3 M26            
1 58655U 23207B   24093.13128588  .00000050  00000+0  00000+0 0  9990
2 58655  55.0525  89.6449 0005768 273.3203  86.6347  1.86231719  1811
CUTE-1 (CO-55)          
1 27844U 03031E   24094.00668619  .00000557  00000+0  26605-3 0  9995
2 27844  98.6801 102.0823 0009855  10.3763 349.7617 14.23146804 77129
CUBESAT XI-IV (CO-57)   
1 27848U 03031J   24093.56003584  .00000475  00000+0  23192-3 0  9990
2 27848  98.6832 101.9280 0010117  26.9635 333.2066 14.22604488 76789
CUBESAT XI-V            
1 28895U 05043F   24093.62343822  .00002540  00000+0  45946-3 0  9993
2 28895  98.1884 229.4228 0015166 233.3091 126.6720 14.67181803983600
CUTE-1.7+APD II (CO-65) 
1 32785U 08021C   24093.84652027  .00005907  00000+0  53658-3 0  9998
2 32785  97.7474  59.9018 0010294 207.4505 152.6174 14.95595558864219
AAUSAT-II               
1 32788U 08021F   24093.84112736  .00018172  00000+0  10174-2 0  9992
2 32788  97.5914  74.1066 0008817  82.2021 278.0211 15.13456256866917
SEEDS II (CO-66)        
1 32791U 08021J   24093.50118707  .00008105  00000+0  62362-3 0  9995
2 32791  97.6875  65.2382 0006202 162.3553 197.7888 15.01932065865152
SWISSCUBE               
1 35932U 09051B   24093.65230330  .00001441  00000+0  31905-3 0  9997
2 35932  98.4821 335.4345 0007019 181.8208 178.2966 14.58729351771546
BEESAT-1                
1 35933U 09051C   24093.91874263  .00001238  00000+0  27698-3 0  9994
2 35933  98.4747 336.7109 0005111 191.2258 168.8827 14.58508748771655
ITUPSAT1                
1 35935U 09051E   24093.94874836  .00001125  00000+0  25829-3 0  9994
2 35935  98.4846 336.5646 0007234 201.6338 158.4556 14.57489826771337
TISAT 1                 
1 36799U 10035E   24093.91663750  .00006506  00000+0  51691-3 0  9999
2 36799  98.0984 340.1711 0008461 115.4746 244.7353 15.00801165745762
M-CUBED & EXP-1 PRIME   
1 37855U 11061F   24093.84151161  .00105531  00000+0  13526-2 0  9995
2 37855 101.6859 231.4266 0068138 217.2900 142.3599 15.55989060681232
AEROCUBE 4.5A           
1 38767U 12048K   24093.67731829  .00009469  00000+0  55958-3 0  9999
2 38767  64.6615 196.4407 0105038  45.2993 315.6621 15.07403078249072
AEROCUBE 4.5B           
1 38768U 12048L   24093.50329239  .00019580  00000+0  82998-3 0  9999
2 38768  64.6558 127.5634 0089891  33.5075 327.1691 15.19539384249905
STRAND-1                
1 39090U 13009E   24093.46861164  .00000566  00000+0  20951-3 0  9994
2 39090  98.3834 283.8381 0009959 115.9465 244.2748 14.35958973581395
BRITE-AUSTRIA           
1 39091U 13009F   24093.98892560  .00000338  00000+0  13169-3 0  9996
2 39091  98.3872 283.6089 0011378 121.1499 239.0804 14.35729675581485
NEE-01 PEGASO           
1 39151U 13018B   24094.10428322  .00003006  00000+0  35836-3 0  9999
2 39151  98.0251 210.5674 0014158 285.0714  74.8933 14.85004331590835
ESTCUBE 1               
1 39161U 13021C   24094.16782819  .00002214  00000+0  32948-3 0  9995
2 39161  97.8344 162.9265 0010403 111.3662 248.8659 14.75863869586060
POPACS 1                
1 39268U 13055D   24093.83739466  .00026379  00000+0  49404-3 0  9996
2 39268  80.9830 237.2847 0430465 333.9394  24.0690 14.86263824549325
POPACS 2                
1 39269U 13055E   24093.86584958  .00016709  00000+0  39611-3 0  9999
2 39269  81.0042 320.9924 0563230 192.1979 166.5103 14.53714253544642
POPACS 3                
1 39270U 13055F   24093.73586681  .00013901  00000+0  38874-3 0  9993
2 39270  81.0129   9.3922 0634931 328.1743  28.2485 14.35124172522135
